1 26407U 00040A   21037.20738361 -.00000017  00000-0  00000-0 0  9995
2 26407  55.8184 292.9360 0182097 282.3577 332.1371  2.00564303150698
1 26407U 00040A   21037.86447922 -.00000014  00000-0  00000-0 0  9994
2 26407  55.8179 292.9099 0182067 282.3650  86.5871  2.00564309150714
1 26407U 00040A   21038.59800279 -.00000011  00000-0  00000-0 0  9990
2 26407  55.8173 292.8809 0182029 282.3743 256.2201  2.00564322150726
1 26407U 00040A   21038.69042703 -.00000011  00000-0  00000-0 0  9991
2 26407  55.8173 292.8772 0182024 282.3749 322.9546  2.00564324150721
1 26407U 00040A   21039.59586240 -.00000008  00000-0  00000-0 0  9996
2 26407  55.8166 292.8413 0181980 282.3854 256.7157  2.00564342150746
1 26407U 00040A   21039.86332846 -.00000007  00000-0  00000-0 0  9996
2 26407  55.8164 292.8307 0181971 282.3878  89.8378  2.00564346150757
1 26407U 00040A   21040.53638253 -.00000007  00000-0  00000-0 0  9993
2 26407  55.8159 292.8041 0181935 282.3961 215.8096  2.00564361150765
1 26407U 00040A   21041.59691466 -.00000008  00000-0  00000-0 0  9996
2 26407  55.8151 292.7621 0181880 282.4077 261.5575  2.00564389150780
1 26407U 00040A   21041.73752941 -.00000009  00000-0  00000-0 0  9999
2 26407  55.8150 292.7565 0181874 282.4088   3.0877  2.00564393150780
1 26407U 00040A   21042.58280501 -.00000013  00000-0  00000-0 0  9996
2 26407  55.8143 292.7230 0181829 282.4189 253.4107  2.00564414150807
1 26407U 00040A   21042.69095451 -.00000014  00000-0  00000-0 0  9997
2 26407  55.8142 292.7187 0181827 282.4195 331.4997  2.00564418150800
1 26407U 00040A   21043.58200405 -.00000019  00000-0  00000-0 0  9998
2 26407  55.8136 292.6834 0181779 282.4302 254.8733  2.00564440150820
1 26407U 00040A   21043.76026396 -.00000021  00000-0  00000-0 0  9996
2 26407  55.8134 292.6764 0181772 282.4317  23.5849  2.00564445150823
1 26407U 00040A   21044.46465927 -.00000025  00000-0  00000-0 0  9995
2 26407  55.8129 292.6485 0181733 282.4404 172.1864  2.00564460150848
1 26407U 00040A   21044.63738267 -.00000026  00000-0  00000-0 0  9995
2 26407  55.8128 292.6416 0181723 282.4413 296.9009  2.00564468150844
1 26407U 00040A   21045.60490955 -.00000031  00000-0  00000-0 0  9998
2 26407  55.8120 292.6033 0181669 282.4513 275.4960  2.00564491150867
1 26407U 00040A   21046.55164359 -.00000034  00000-0  00000-0 0  9992
2 26407  55.8113 292.5658 0181618 282.4605 239.0784  2.00564509150889
1 26407U 00040A   21046.84143122 -.00000034  00000-0  00000-0 0  9999
2 26407  55.8111 292.5543 0181604 282.4633  88.3176  2.00564514150893
1 26407U 00040A   21047.20611250 -.00000033  00000-0  00000-0 0  9991
2 26407  55.8109 292.5399 0181586 282.4659 351.6340  2.00564524150896
1 26407U 00040A   21048.57056211 -.00000028  00000-0  00000-0 0  9996
2 26407  55.8099 292.4858 0181513 282.4779 256.8262  2.00564542150929
1 26407U 00040A   21048.75062632 -.00000027  00000-0  00000-0 0  9999
2 26407  55.8097 292.4787 0181508 282.4798  26.8402  2.00564543150925
1 26407U 00040A   21049.57553082 -.00000020  00000-0  00000-0 0  9997
2 26407  55.8091 292.4460 0181464 282.4874 262.4569  2.00564550150945
1 26407U 00040A   21049.70622454 -.00000019  00000-0  00000-0 0  9990
2 26407  55.8090 292.4409 0181460 282.4890 356.8231  2.00564550150945
